{"fetched_at":"2026-03-29T16:36:15Z","count":15609,"tles":[{"name":"STARLINK-3106","line1":"1 49164U 21082AL  26087.79873185  .00001270  00000+0  11421-3 0  9999","line2":"2 49164  70.0005 226.2680 0003104 270.8704  89.2099 14.98331459250494","category":"Starlink"}]}